CCSDS_OMM_VERS,COMMENT,CREATION_DATE,ORIGINATOR,OBJECT_NAME,OBJECT_ID,CENTER_NAME,REF_FRAME,TIME_SYSTEM,MEAN_ELEMENT_THEORY,EPOCH,MEAN_MOTION,ECCENTRICITY,INCLINATION,RA_OF_ASC_NODE,ARG_OF_PERICENTER,MEAN_ANOMALY,EPHEMERIS_TYPE,CLASSIFICATION_TYPE,NORAD_CAT_ID,ELEMENT_SET_NO,REV_AT_EPOCH,BSTAR,MEAN_MOTION_DOT,MEAN_MOTION_DDOT,SEMIMAJOR_AXIS,PERIOD,APOAPSIS,PERIAPSIS,OBJECT_TYPE,RCS_SIZE,COUNTRY_CODE,LAUNCH_DATE,SITE,DECAY_DATE,FILE,GP_ID,TLE_LINE0,TLE_LINE1,TLE_LINE2
"2.0","GENERATED VIA SPACE-TRACK.ORG API","2009-01-06T15:26:25","18 SPCS","COSMOS 2251","1993-036A","EARTH","TEME","UTC","SGP4","2008-12-05T15:35:59.516160","14.31132075","0.00173560","74.0341","139.3883","233.4700","126.4837","0","U","22675","999","80799","0.00000724200000","-0.00000007","0.0000000000000","7166.090","100.619","800.393","775.518","PAYLOAD","LARGE","CIS","1993-06-16","PKMTR","","655403","69180795","0 COSMOS 2251","1 22675U 93036A   08340.64999440 -.00000007 +00000-0 +72420-5 0  9991","2 22675 074.0341 139.3883 0017356 233.4700 126.4837 14.31132075807990"
"2.0","GENERATED VIA SPACE-TRACK.ORG API","2009-01-06T15:26:25","18 SPCS","IRIDIUM 33","1997-051C","EARTH","TEME","UTC","SGP4","2008-12-05T22:09:00.608544","14.34216959","0.00022100","86.3983","149.1927","82.1030","278.0427","0","U","24946","999","58789","-0.00001388600000","-0.00000019","0.0000000000000","7155.811","100.403","779.257","776.094","PAYLOAD","LARGE","US","1997-09-14","TTMTR","","655403","69181150","0 IRIDIUM 33","1 24946U 97051C   08340.92292371 -.00000019 +00000-0 -13886-4 0  9999","2 24946 086.3983 149.1927 0002210 082.1030 278.0427 14.34216959587897"
"2.0","GENERATED VIA SPACE-TRACK.ORG API","2008-12-05T22:46:17","18 SPCS","COSMOS 2251","1993-036A","EARTH","TEME","UTC","SGP4","2008-12-05T23:59:17.548224","14.31131994","0.00173510","74.0339","138.7517","232.9066","127.0493","0","U","22675","999","80804","0.00000395060000","-0.00000016","0.0000000000000","7166.091","100.619","800.389","775.522","PAYLOAD","LARGE","CIS","1993-06-16","PKMTR","","642029","68888612","0 COSMOS 2251","1 22675U 93036A   08340.99950866 -.00000016  00000-0  39506-5 0  9996","2 22675 074.0339 138.7517 0017351 232.9066 127.0493 14.31131994808049"
"2.0","GENERATED VIA SPACE-TRACK.ORG API","2008-12-06T08:13:18","18 SPCS","IRIDIUM 33","1997-051C","EARTH","TEME","UTC","SGP4","2008-12-06T13:13:12.624383","14.34216655","0.00021990","86.3983","148.9306","83.0084","277.1361","0","U","24946","999","58798","-0.00002845000000","-0.00000060","0.0000000000000","7155.812","100.403","779.250","776.103","PAYLOAD","LARGE","US","1997-09-14","TTMTR","","642215","68892743","0 IRIDIUM 33","1 24946U 97051C   08341.55084056 -.00000060  00000-0 -28450-4 0  9997","2 24946 086.3983 148.9306 0002199 083.0084 277.1361 14.34216655587980"
"2.0","GENERATED VIA SPACE-TRACK.ORG API","2009-01-06T15:26:25","18 SPCS","COSMOS 2251","1993-036A","EARTH","TEME","UTC","SGP4","2008-12-06T20:07:12.790271","14.31131924","0.00173600","74.0340","137.2241","231.1326","128.8275","0","U","22675","999","80816","0.00000141960000","-0.00000022","0.0000000000000","7166.091","100.619","800.396","775.516","PAYLOAD","LARGE","CIS","1993-06-16","PKMTR","","655405","69188067","0 COSMOS 2251","1 22675U 93036A   08341.83834248 -.00000022 +00000-0 +14196-5 0  9990","2 22675 074.0340 137.2241 0017360 231.1326 128.8275 14.31131924808162"
"2.0","GENERATED VIA SPACE-TRACK.ORG API","2009-01-06T15:26:25","18 SPCS","IRIDIUM 33","1997-051C","EARTH","TEME","UTC","SGP4","2008-12-06T23:16:00.622559","14.34216883","0.00022310","86.3982","148.7557","84.2742","275.8707","0","U","24946","999","58804","-0.00000247930000","0.00000013","0.0000000000000","7155.811","100.403","779.273","776.080","PAYLOAD","LARGE","US","1997-09-14","TTMTR","","655405","69188410","0 IRIDIUM 33","1 24946U 97051C   08341.96945165 +.00000013 +00000-0 -24793-5 0  9993","2 24946 086.3982 148.7557 0002231 084.2742 275.8707 14.34216883588046"
"2.0","GENERATED VIA SPACE-TRACK.ORG API","2008-12-07T06:45:23","18 SPCS","COSMOS 2251","1993-036A","EARTH","TEME","UTC","SGP4","2008-12-07T11:13:09.217920","14.31131866","0.00173450","74.0340","136.0783","229.9642","129.9987","0","U","22675","999","80825","-0.00000116180000","-0.00000029","0.0000000000000","7166.091","100.619","800.386","775.526","PAYLOAD","LARGE","CIS","1993-06-16","PKMTR","","642517","68897819","0 COSMOS 2251","1 22675U 93036A   08342.46746780 -.00000029  00000-0 -11618-5 0  9997","2 22675 074.0340 136.0783 0017345 229.9642 129.9987 14.31131866808256"
"2.0","GENERATED VIA SPACE-TRACK.ORG API","2008-12-07T12:45:04","18 SPCS","IRIDIUM 33","1997-051C","EARTH","TEME","UTC","SGP4","2008-12-07T12:39:44.652960","14.34216697","0.00021980","86.3983","148.5229","82.2007","277.9434","0","U","24946","999","58812","-0.00001013600000","-0.00000009","0.0000000000000","7155.812","100.403","779.250","776.104","PAYLOAD","LARGE","US","1997-09-14","TTMTR","","642617","68899659","0 IRIDIUM 33","1 24946U 97051C   08342.52760015 -.00000009  00000-0 -10136-4 0  9996","2 24946 086.3983 148.5229 0002198 082.2007 277.9434 14.34216697588127"
"2.0","GENERATED VIA SPACE-TRACK.ORG API","2009-01-06T15:26:25","18 SPCS","COSMOS 2251","1993-036A","EARTH","TEME","UTC","SGP4","2008-12-07T19:36:27.230975","14.31131931","0.00173500","74.0343","135.4418","229.2763","130.6882","0","U","22675","999","80830","0.00000214940000","-0.00000020","0.0000000000000","7166.091","100.619","800.389","775.523","PAYLOAD","LARGE","CIS","1993-06-16","PKMTR","","655407","69195267","0 COSMOS 2251","1 22675U 93036A   08342.81698184 -.00000020 +00000-0 +21494-5 0  9993","2 22675 074.0343 135.4418 0017350 229.2763 130.6882 14.31131931808302"
"2.0","GENERATED VIA SPACE-TRACK.ORG API","2009-01-06T15:26:25","18 SPCS","IRIDIUM 33","1997-051C","EARTH","TEME","UTC","SGP4","2008-12-07T22:42:32.670143","14.34216722","0.00022080","86.3982","148.3479","82.6802","277.4642","0","U","24946","999","58818","-0.00000514950000","0.00000005","0.0000000000000","7155.812","100.403","779.257","776.097","PAYLOAD","LARGE","US","1997-09-14","TTMTR","","655407","69195612","0 IRIDIUM 33","1 24946U 97051C   08342.94621146 +.00000005 +00000-0 -51495-5 0  9992","2 24946 086.3982 148.3479 0002208 082.6802 277.4642 14.34216722588181"
"2.0","GENERATED VIA SPACE-TRACK.ORG API","2008-12-08T06:41:54","18 SPCS","COSMOS 2251","1993-036A","EARTH","TEME","UTC","SGP4","2008-12-08T12:23:03.244991","14.31132080","0.00173390","74.0345","134.1688","227.8849","132.0835","0","U","22675","999","80840","0.00000649470000","-0.00000009","0.0000000000000","7166.090","100.619","800.381","775.530","PAYLOAD","LARGE","CIS","1993-06-16","PKMTR","","642883","68904894","0 COSMOS 2251","1 22675U 93036A   08343.51600978 -.00000009  00000-0  64947-5 0  9992","2 22675 074.0345 134.1688 0017339 227.8849 132.0835 14.31132080808406"
"2.0","GENERATED VIA SPACE-TRACK.ORG API","2008-12-08T07:52:19","18 SPCS","IRIDIUM 33","1997-051C","EARTH","TEME","UTC","SGP4","2008-12-08T13:46:44.710175","14.34216515","0.00021820","86.3982","148.0858","82.5869","277.5573","0","U","24946","999","58827","-0.00001393400000","-0.00000019","0.0000000000000","7155.812","100.403","779.239","776.116","PAYLOAD","LARGE","US","1997-09-14","TTMTR","","642981","68906509","0 IRIDIUM 33","1 24946U 97051C   08343.57412859 -.00000019  00000-0 -13934-4 0  9992","2 24946 086.3982 148.0858 0002182 082.5869 277.5573 14.34216515588276"
"2.0","GENERATED VIA SPACE-TRACK.ORG API","2009-01-06T15:26:25","18 SPCS","COSMOS 2251","1993-036A","EARTH","TEME","UTC","SGP4","2008-12-08T20:46:21.243360","14.31132234","0.00173500","74.0343","133.5323","227.0867","132.8840","0","U","22675","999","80845","0.00001166000000","0.00000005","0.0000000000000","7166.090","100.619","800.388","775.522","PAYLOAD","LARGE","CIS","1993-06-16","PKMTR","","655408","69202297","0 COSMOS 2251","1 22675U 93036A   08343.86552365 +.00000005 +00000-0 +11660-4 0  9994","2 22675 074.0343 133.5323 0017350 227.0867 132.8840 14.31132234808458"
"2.0","GENERATED VIA SPACE-TRACK.ORG API","2009-01-06T15:26:25","18 SPCS","IRIDIUM 33","1997-051C","EARTH","TEME","UTC","SGP4","2008-12-08T22:09:04.727231","14.34216750","0.00022090","86.3981","147.9399","82.9356","277.2097","0","U","24946","999","58832","0.00000828140000","0.00000043","0.0000000000000","7155.812","100.403","779.257","776.096","PAYLOAD","LARGE","US","1997-09-14","TTMTR","","655408","69202637","0 IRIDIUM 33","1 24946U 97051C   08343.92297138 +.00000043 +00000-0 +82814-5 0  9991","2 24946 086.3981 147.9399 0002209 082.9356 277.2097 14.34216750588323"
"2.0","GENERATED VIA SPACE-TRACK.ORG API","2008-12-09T09:26:00","18 SPCS","IRIDIUM 33","1997-051C","EARTH","TEME","UTC","SGP4","2008-12-09T13:13:16.775040","14.34216441","0.00022080","86.3980","147.6775","81.9911","278.1535","0","U","24946","999","58841","-0.00001425900000","-0.00000020","0.0000000000000","7155.813","100.403","779.258","776.098","PAYLOAD","LARGE","US","1997-09-14","TTMTR","","643462","68912697","0 IRIDIUM 33","1 24946U 97051C   08344.55088860 -.00000020  00000-0 -14259-4 0  9995","2 24946 086.3980 147.6775 0002208 081.9911 278.1535 14.34216441588416"
"2.0","GENERATED VIA SPACE-TRACK.ORG API","2008-12-09T14:45:50","18 SPCS","COSMOS 2251","1993-036A","EARTH","TEME","UTC","SGP4","2008-12-09T20:15:35.612352","14.31132498","0.00173340","74.0342","131.7498","225.1648","134.8098","0","U","22675","999","80859","0.00001796300000","0.00000021","0.0000000000000","7166.089","100.619","800.376","775.532","PAYLOAD","LARGE","CIS","1993-06-16","PKMTR","","643597","68913990","0 COSMOS 2251","1 22675U 93036A   08344.84416218  .00000021  00000-0  17963-4 0  9999","2 22675 074.0342 131.7498 0017334 225.1648 134.8098 14.31132498808592"
